CAS500-2 RIDESHARE OBJE*
1 69014U 26100AL  26129.71524273  .00002741  00000+0  12714-3 0  9991
2 69014  97.4099  28.2426 0006010 174.2745 185.8561 15.20876579   960
