{
  "norad_id": 69014,
  "name": "CAS500-2 RIDESHARE OBJECT AL",
  "history": [
    {
      "epoch": "2026-05-09T17:09:56.971008Z",
      "apogee_km": 507.33160899593076,
      "perigee_km": 499.0588713767793,
      "latitude_deg": 6.769835434269372e-05,
      "longitude_deg": -96.77362976283702,
      "height_km": 510.40236183726495,
      "semi_major_axis_km": 6881.332240186355,
      "eccentricity": 0.0006011,
      "inclination_deg": 97.4099,
      "raan_deg": 28.2426,
      "arg_perigee_deg": 174.2745,
      "mean_anomaly_deg": 185.8561,
      "mean_motion_rev_day": 15.20876579
    }
  ]
}